CCSDS_OMM_VERS = 2.0
CREATION_DATE  = 
ORIGINATOR     = 

OBJECT_NAME    = STARLINK-36650
OBJECT_ID      = 2026-033R
CENTER_NAME    = EARTH
REF_FRAME      = TEME
TIME_SYSTEM    = UTC
MEAN_ELEMENT_THEORY = SGP/SGP4

EPOCH          = 2026-03-18T12:00:02.998944
MEAN_MOTION    = 15.50571997
ECCENTRICITY   = .0000991
INCLINATION    = 42.9999
RA_OF_ASC_NODE = 218.6538
ARG_OF_PERICENTER = 271.3639
MEAN_ANOMALY   = 168.1179

EPHEMERIS_TYPE = 0
CLASSIFICATION_TYPE = U
NORAD_CAT_ID   = 67836
ELEMENT_SET_NO = 999
REV_AT_EPOCH   = 608
BSTAR          = .53457E-3
MEAN_MOTION_DOT = .31135E-3
MEAN_MOTION_DDOT = 0

CCSDS_OMM_VERS = 2.0
CREATION_DATE  = 
ORIGINATOR     = 

OBJECT_NAME    = STARLINK-36649
OBJECT_ID      = 2026-033S
CENTER_NAME    = EARTH
REF_FRAME      = TEME
TIME_SYSTEM    = UTC
MEAN_ELEMENT_THEORY = SGP/SGP4

EPOCH          = 2026-03-18T12:00:02.998944
MEAN_MOTION    = 15.50876606
ECCENTRICITY   = .0001231
INCLINATION    = 42.9999
RA_OF_ASC_NODE = 218.3807
ARG_OF_PERICENTER = 280.6597
MEAN_ANOMALY   = 268.9595

EPHEMERIS_TYPE = 0
CLASSIFICATION_TYPE = U
NORAD_CAT_ID   = 67837
ELEMENT_SET_NO = 999
REV_AT_EPOCH   = 608
BSTAR          = -.96158E-2
MEAN_MOTION_DOT = -.533266E-2
MEAN_MOTION_DDOT = 0

CCSDS_OMM_VERS = 2.0
CREATION_DATE  = 
ORIGINATOR     = 

OBJECT_NAME    = STARLINK-36654
OBJECT_ID      = 2026-033T
CENTER_NAME    = EARTH
REF_FRAME      = TEME
TIME_SYSTEM    = UTC
MEAN_ELEMENT_THEORY = SGP/SGP4

EPOCH          = 2026-03-18T12:00:02.998944
MEAN_MOTION    = 15.50528039
ECCENTRICITY   = .0001535
INCLINATION    = 43.0001
RA_OF_ASC_NODE = 218.5044
ARG_OF_PERICENTER = 249.9955
MEAN_ANOMALY   = 249.4861

EPHEMERIS_TYPE = 0
CLASSIFICATION_TYPE = U
NORAD_CAT_ID   = 67838
ELEMENT_SET_NO = 999
REV_AT_EPOCH   = 608
BSTAR          = .68178E-3
MEAN_MOTION_DOT = .39786E-3
MEAN_MOTION_DDOT = 0

CCSDS_OMM_VERS = 2.0
CREATION_DATE  = 
ORIGINATOR     = 

OBJECT_NAME    = STARLINK-36652
OBJECT_ID      = 2026-033U
CENTER_NAME    = EARTH
REF_FRAME      = TEME
TIME_SYSTEM    = UTC
MEAN_ELEMENT_THEORY = SGP/SGP4

EPOCH          = 2026-03-18T12:00:02.998944
MEAN_MOTION    = 15.50551378
ECCENTRICITY   = .0001545
INCLINATION    = 43.0001
RA_OF_ASC_NODE = 218.6073
ARG_OF_PERICENTER = 275.6620
MEAN_ANOMALY   = 182.0105

EPHEMERIS_TYPE = 0
CLASSIFICATION_TYPE = U
NORAD_CAT_ID   = 67839
ELEMENT_SET_NO = 999
REV_AT_EPOCH   = 608
BSTAR          = .39747E-3
MEAN_MOTION_DOT = .23022E-3
MEAN_MOTION_DDOT = 0

CCSDS_OMM_VERS = 2.0
CREATION_DATE  = 
ORIGINATOR     = 

OBJECT_NAME    = STARLINK-36651
OBJECT_ID      = 2026-033V
CENTER_NAME    = EARTH
REF_FRAME      = TEME
TIME_SYSTEM    = UTC
MEAN_ELEMENT_THEORY = SGP/SGP4

EPOCH          = 2026-03-18T12:00:02.998944
MEAN_MOTION    = 15.50531800
ECCENTRICITY   = .0002367
INCLINATION    = 43.0002
RA_OF_ASC_NODE = 218.4943
ARG_OF_PERICENTER = 283.5107
MEAN_ANOMALY   = 219.6843

EPHEMERIS_TYPE = 0
CLASSIFICATION_TYPE = U
NORAD_CAT_ID   = 67840
ELEMENT_SET_NO = 999
REV_AT_EPOCH   = 608
BSTAR          = .53514E-3
MEAN_MOTION_DOT = .31126E-3
MEAN_MOTION_DDOT = 0

CCSDS_OMM_VERS = 2.0
CREATION_DATE  = 
ORIGINATOR     = 

OBJECT_NAME    = STARLINK-36656
OBJECT_ID      = 2026-033W
CENTER_NAME    = EARTH
REF_FRAME      = TEME
TIME_SYSTEM    = UTC
MEAN_ELEMENT_THEORY = SGP/SGP4

EPOCH          = 2026-03-18T12:00:02.998944
MEAN_MOTION    = 15.50502264
ECCENTRICITY   = .0001619
INCLINATION    = 42.9999
RA_OF_ASC_NODE = 218.4101
ARG_OF_PERICENTER = 292.0687
MEAN_ANOMALY   = 245.2444

EPHEMERIS_TYPE = 0
CLASSIFICATION_TYPE = U
NORAD_CAT_ID   = 67841
ELEMENT_SET_NO = 999
REV_AT_EPOCH   = 608
BSTAR          = .70969E-3
MEAN_MOTION_DOT = .41399E-3
MEAN_MOTION_DDOT = 0

CCSDS_OMM_VERS = 2.0
CREATION_DATE  = 
ORIGINATOR     = 

OBJECT_NAME    = STARLINK-36653
OBJECT_ID      = 2026-033X
CENTER_NAME    = EARTH
REF_FRAME      = TEME
TIME_SYSTEM    = UTC
MEAN_ELEMENT_THEORY = SGP/SGP4

EPOCH          = 2026-03-18T12:00:02.998944
MEAN_MOTION    = 15.50554784
ECCENTRICITY   = .000153
INCLINATION    = 42.9999
RA_OF_ASC_NODE = 218.4659
ARG_OF_PERICENTER = 261.3418
MEAN_ANOMALY   = 252.9833

EPHEMERIS_TYPE = 0
CLASSIFICATION_TYPE = U
NORAD_CAT_ID   = 67842
ELEMENT_SET_NO = 999
REV_AT_EPOCH   = 608
BSTAR          = .50327E-3
MEAN_MOTION_DOT = .29268E-3
MEAN_MOTION_DDOT = 0

CCSDS_OMM_VERS = 2.0
CREATION_DATE  = 
ORIGINATOR     = 

OBJECT_NAME    = STARLINK-36589
OBJECT_ID      = 2026-033Y
CENTER_NAME    = EARTH
REF_FRAME      = TEME
TIME_SYSTEM    = UTC
MEAN_ELEMENT_THEORY = SGP/SGP4

EPOCH          = 2026-03-18T12:00:02.998944
MEAN_MOTION    = 15.50539156
ECCENTRICITY   = .0001919
INCLINATION    = 42.9998
RA_OF_ASC_NODE = 218.3853
ARG_OF_PERICENTER = 267.3869
MEAN_ANOMALY   = 279.5809

EPHEMERIS_TYPE = 0
CLASSIFICATION_TYPE = U
NORAD_CAT_ID   = 67843
ELEMENT_SET_NO = 999
REV_AT_EPOCH   = 608
BSTAR          = .56772E-3
MEAN_MOTION_DOT = .33058E-3
MEAN_MOTION_DDOT = 0

CCSDS_OMM_VERS = 2.0
CREATION_DATE  = 
ORIGINATOR     = 

OBJECT_NAME    = STARLINK-36598
OBJECT_ID      = 2026-033Z
CENTER_NAME    = EARTH
REF_FRAME      = TEME
TIME_SYSTEM    = UTC
MEAN_ELEMENT_THEORY = SGP/SGP4

EPOCH          = 2026-03-18T12:00:02.998944
MEAN_MOTION    = 15.50582941
ECCENTRICITY   = .0001789
INCLINATION    = 43.0000
RA_OF_ASC_NODE = 218.5909
ARG_OF_PERICENTER = 307.9980
MEAN_ANOMALY   = 155.9571

EPHEMERIS_TYPE = 0
CLASSIFICATION_TYPE = U
NORAD_CAT_ID   = 67844
ELEMENT_SET_NO = 999
REV_AT_EPOCH   = 608
BSTAR          = .4422E-3
MEAN_MOTION_DOT = .25689E-3
MEAN_MOTION_DDOT = 0

CCSDS_OMM_VERS = 2.0
CREATION_DATE  = 
ORIGINATOR     = 

OBJECT_NAME    = STARLINK-36606
OBJECT_ID      = 2026-033AA
CENTER_NAME    = EARTH
REF_FRAME      = TEME
TIME_SYSTEM    = UTC
MEAN_ELEMENT_THEORY = SGP/SGP4

EPOCH          = 2026-03-18T12:00:02.998944
MEAN_MOTION    = 15.53724933
ECCENTRICITY   = .0001345
INCLINATION    = 43.0003
RA_OF_ASC_NODE = 218.1417
ARG_OF_PERICENTER = 258.1447
MEAN_ANOMALY   = 27.7577

EPHEMERIS_TYPE = 0
CLASSIFICATION_TYPE = U
NORAD_CAT_ID   = 67845
ELEMENT_SET_NO = 999
REV_AT_EPOCH   = 608
BSTAR          = -.32596E-1
MEAN_MOTION_DOT = -.1889958E-1
MEAN_MOTION_DDOT = 0

CCSDS_OMM_VERS = 2.0
CREATION_DATE  = 
ORIGINATOR     = 

OBJECT_NAME    = STARLINK-36658
OBJECT_ID      = 2026-033AB
CENTER_NAME    = EARTH
REF_FRAME      = TEME
TIME_SYSTEM    = UTC
MEAN_ELEMENT_THEORY = SGP/SGP4

EPOCH          = 2026-03-18T12:00:02.998944
MEAN_MOTION    = 15.50549312
ECCENTRICITY   = .0002135
INCLINATION    = 42.9999
RA_OF_ASC_NODE = 218.5381
ARG_OF_PERICENTER = 281.6202
MEAN_ANOMALY   = 203.4849

EPHEMERIS_TYPE = 0
CLASSIFICATION_TYPE = U
NORAD_CAT_ID   = 67846
ELEMENT_SET_NO = 999
REV_AT_EPOCH   = 608
BSTAR          = .45063E-3
MEAN_MOTION_DOT = .26156E-3
MEAN_MOTION_DDOT = 0

CCSDS_OMM_VERS = 2.0
CREATION_DATE  = 
ORIGINATOR     = 

OBJECT_NAME    = STARLINK-36618
OBJECT_ID      = 2026-033AC
CENTER_NAME    = EARTH
REF_FRAME      = TEME
TIME_SYSTEM    = UTC
MEAN_ELEMENT_THEORY = SGP/SGP4

EPOCH          = 2026-03-18T12:00:02.998944
MEAN_MOTION    = 15.87667997
ECCENTRICITY   = .000155
INCLINATION    = 42.9756
RA_OF_ASC_NODE = 214.3265
ARG_OF_PERICENTER = 285.2206
MEAN_ANOMALY   = 68.5189

EPHEMERIS_TYPE = 0
CLASSIFICATION_TYPE = U
NORAD_CAT_ID   = 67847
ELEMENT_SET_NO = 999
REV_AT_EPOCH   = 608
BSTAR          = -.27506E-2
MEAN_MOTION_DOT = -.703684E-2
MEAN_MOTION_DDOT = 0

CCSDS_OMM_VERS = 2.0
CREATION_DATE  = 
ORIGINATOR     = 

OBJECT_NAME    = STARLINK-36660
OBJECT_ID      = 2026-033AD
CENTER_NAME    = EARTH
REF_FRAME      = TEME
TIME_SYSTEM    = UTC
MEAN_ELEMENT_THEORY = SGP/SGP4

EPOCH          = 2026-03-18T12:00:02.998944
MEAN_MOTION    = 15.50581645
ECCENTRICITY   = .0001513
INCLINATION    = 42.9999
RA_OF_ASC_NODE = 218.6236
ARG_OF_PERICENTER = 255.9445
MEAN_ANOMALY   = 194.1427

EPHEMERIS_TYPE = 0
CLASSIFICATION_TYPE = U
NORAD_CAT_ID   = 67848
ELEMENT_SET_NO = 999
REV_AT_EPOCH   = 608
BSTAR          = .39112E-3
MEAN_MOTION_DOT = .22672E-3
MEAN_MOTION_DDOT = 0

CCSDS_OMM_VERS = 2.0
CREATION_DATE  = 
ORIGINATOR     = 

OBJECT_NAME    = STARLINK-36602
OBJECT_ID      = 2026-033AE
CENTER_NAME    = EARTH
REF_FRAME      = TEME
TIME_SYSTEM    = UTC
MEAN_ELEMENT_THEORY = SGP/SGP4

EPOCH          = 2026-03-18T12:00:02.998944
MEAN_MOTION    = 15.50550620
ECCENTRICITY   = .0001887
INCLINATION    = 43.0001
RA_OF_ASC_NODE = 218.5741
ARG_OF_PERICENTER = 273.3168
MEAN_ANOMALY   = 196.7766

EPHEMERIS_TYPE = 0
CLASSIFICATION_TYPE = U
NORAD_CAT_ID   = 67849
ELEMENT_SET_NO = 999
REV_AT_EPOCH   = 608
BSTAR          = .38833E-3
MEAN_MOTION_DOT = .22483E-3
MEAN_MOTION_DDOT = 0

CCSDS_OMM_VERS = 2.0
CREATION_DATE  = 
ORIGINATOR     = 

OBJECT_NAME    = STARLINK-36840
OBJECT_ID      = 2026-034A
CENTER_NAME    = EARTH
REF_FRAME      = TEME
TIME_SYSTEM    = UTC
MEAN_ELEMENT_THEORY = SGP/SGP4

EPOCH          = 2026-03-17T15:13:02.827200
MEAN_MOTION    = 15.81106853
ECCENTRICITY   = .00017738
INCLINATION    = 53.1589
RA_OF_ASC_NODE = 171.5435
ARG_OF_PERICENTER = 223.9160
MEAN_ANOMALY   = 136.1723

EPHEMERIS_TYPE = 0
CLASSIFICATION_TYPE = U
NORAD_CAT_ID   = 67850
ELEMENT_SET_NO = 999
REV_AT_EPOCH   = 519
BSTAR          = .20602309E-2
MEAN_MOTION_DOT = .431528E-2
MEAN_MOTION_DDOT = 0

